[
    {
        "Altitude(m)": 702877.8016283714,
        "Argument of Periapsis(deg)": 0.007973084830638947,
        "Eccentricity": 0.0,
        "Inclination(deg)": 45.0,
        "Latitude(deg)": 5.820180502529877,
        "Longitude(deg)": -71.35148444135805,
        "Mean Anomaly(deg)": -188.29034834676338,
        "RAAN(deg)": 214.99247364097926,
        "Satellite Name": "Constellation 1 956",
        "Satellite Number": 956,
        "Semi-Major Axis(m)": 7083131.272910544,
        "Time(s)": 133
    },
    {
        "Altitude(m)": 702880.6138089263,
        "Argument of Periapsis(deg)": 0.008033032836884352,
        "Eccentricity": 0.0,
        "Inclination(deg)": 45.0,
        "Latitude(deg)": 5.77718220229721,
        "Longitude(deg)": -71.31228868582154,
        "Mean Anomaly(deg)": -188.22964720651353,
        "RAAN(deg)": 214.9924170518137,
        "Satellite Name": "Constellation 1 956",
        "Satellite Number": 956,
        "Semi-Major Axis(m)": 7083131.272910544,
        "Time(s)": 134
    },
    {
        "Altitude(m)": 702883.4466496113,
        "Argument of Periapsis(deg)": 0.008092980843129758,
        "Eccentricity": 0.0,
        "Inclination(deg)": 45.0,
        "Latitude(deg)": 5.734180592670109,
        "Longitude(deg)": -71.27309951190365,
        "Mean Anomaly(deg)": -188.16894606626363,
        "RAAN(deg)": 214.99236046264812,
        "Satellite Name": "Constellation 1 956",
        "Satellite Number": 956,
        "Semi-Major Axis(m)": 7083131.272910544,
        "Time(s)": 135
    },
    {
        "Altitude(m)": 702886.3001564123,
        "Argument of Periapsis(deg)": 0.008152928849375162,
        "Eccentricity": 0.0,
        "Inclination(deg)": 45.0,
        "Latitude(deg)": 5.691175699439704,
        "Longitude(deg)": -71.23391687030269,
        "Mean Anomaly(deg)": -188.1082449260137,
        "RAAN(deg)": 214.99230387348257,
        "Satellite Name": "Constellation 1 956",
        "Satellite Number": 956,
        "Semi-Major Axis(m)": 7083131.272910544,
        "Time(s)": 136
    },
    {
        "Altitude(m)": 702889.1743352358,
        "Argument of Periapsis(deg)": 0.008212876855620568,
        "Eccentricity": 0.0,
        "Inclination(deg)": 45.0,
        "Latitude(deg)": 5.6481675483847775,
        "Longitude(deg)": -71.1947407117316,
        "Mean Anomaly(deg)": -188.04754378576382,
        "RAAN(deg)": 214.99224728431702,
        "Satellite Name": "Constellation 1 956",
        "Satellite Number": 956,
        "Semi-Major Axis(m)": 7083131.272910544,
        "Time(s)": 137
    },
    {
        "Altitude(m)": 702892.0691918905,
        "Argument of Periapsis(deg)": 0.008272824861865974,
        "Eccentricity": 0.0,
        "Inclination(deg)": 45.0,
        "Latitude(deg)": 5.605156165271438,
        "Longitude(deg)": -71.15557098691761,
        "Mean Anomaly(deg)": -187.98684264551397,
        "RAAN(deg)": 214.9921906951514,
        "Satellite Name": "Constellation 1 956",
        "Satellite Number": 956,
        "Semi-Major Axis(m)": 7083131.272910544,
        "Time(s)": 138
    },
    {
        "Altitude(m)": 702894.9847320977,
        "Argument of Periapsis(deg)": 0.00833277286811138,
        "Eccentricity": 0.0,
        "Inclination(deg)": 45.0,
        "Latitude(deg)": 5.562141575853541,
        "Longitude(deg)": -71.116407646602,
        "Mean Anomaly(deg)": -187.92614150526398,
        "RAAN(deg)": 214.99213410598585,
        "Satellite Name": "Constellation 1 956",
        "Satellite Number": 956,
        "Semi-Major Axis(m)": 7083131.272910544,
        "Time(s)": 139
    },
    {
        "Altitude(m)": 702897.9209614843,
        "Argument of Periapsis(deg)": 0.008392720874356788,
        "Eccentricity": 0.0,
        "Inclination(deg)": 45.0,
        "Latitude(deg)": 5.519123805872756,
        "Longitude(deg)": -71.07725064154049,
        "Mean Anomaly(deg)": -187.86544036501414,
        "RAAN(deg)": 214.99207751682027,
        "Satellite Name": "Constellation 1 956",
        "Satellite Number": 956,
        "Semi-Major Axis(m)": 7083131.272910544,
        "Time(s)": 140
    },
    {
        "Altitude(m)": 702900.8778855938,
        "Argument of Periapsis(deg)": 0.008452668880602192,
        "Eccentricity": 0.0,
        "Inclination(deg)": 45.0,
        "Latitude(deg)": 5.476102881058327,
        "Longitude(deg)": -71.03810009059954,
        "Mean Anomaly(deg)": -187.80473922476418,
        "RAAN(deg)": 214.99202092765472,
        "Satellite Name": "Constellation 1 956",
        "Satellite Number": 956,
        "Semi-Major Axis(m)": 7083131.272910544,
        "Time(s)": 141
    },
    {
        "Altitude(m)": 702903.8555098659,
        "Argument of Periapsis(deg)": 0.008512616886847598,
        "Eccentricity": 0.0,
        "Inclination(deg)": 45.0,
        "Latitude(deg)": 5.433078827127974,
        "Longitude(deg)": -70.9989556083689,
        "Mean Anomaly(deg)": -187.74403808451433,
        "RAAN(deg)": 214.99196433848917,
        "Satellite Name": "Constellation 1 956",
        "Satellite Number": 956,
        "Semi-Major Axis(m)": 7083131.272910544,
        "Time(s)": 142
    },
    {
        "Altitude(m)": 702906.8538396625,
        "Argument of Periapsis(deg)": 0.008572564893093004,
        "Eccentricity": 0.0,
        "Inclination(deg)": 45.0,
        "Latitude(deg)": 5.390051669786832,
        "Longitude(deg)": -70.95981731374283,
        "Mean Anomaly(deg)": -187.68333694426443,
        "RAAN(deg)": 214.99190774932356,
        "Satellite Name": "Constellation 1 956",
        "Satellite Number": 956,
        "Semi-Major Axis(m)": 7083131.272910544,
        "Time(s)": 143
    },
    {
        "Altitude(m)": 702909.8728802438,
        "Argument of Periapsis(deg)": 0.008632512899338408,
        "Eccentricity": 0.0,
        "Inclination(deg)": 45.0,
        "Latitude(deg)": 5.347021434728468,
        "Longitude(deg)": -70.9206851575324,
        "Mean Anomaly(deg)": -187.6226358040145,
        "RAAN(deg)": 214.991851160158,
        "Satellite Name": "Constellation 1 956",
        "Satellite Number": 956,
        "Semi-Major Axis(m)": 7083131.272910544,
        "Time(s)": 144
    },
    {
        "Altitude(m)": 702912.912636785,
        "Argument of Periapsis(deg)": 0.008692460905583814,
        "Eccentricity": 0.0,
        "Inclination(deg)": 45.0,
        "Latitude(deg)": 5.303988147634655,
        "Longitude(deg)": -70.88155909056252,
        "Mean Anomaly(deg)": -187.5619346637646,
        "RAAN(deg)": 214.99179457099245,
        "Satellite Name": "Constellation 1 956",
        "Satellite Number": 956,
        "Semi-Major Axis(m)": 7083131.272910544,
        "Time(s)": 145
    },
    {
        "Altitude(m)": 702915.9731143641,
        "Argument of Periapsis(deg)": 0.00875240891182922,
        "Eccentricity": 0.0,
        "Inclination(deg)": 45.0,
        "Latitude(deg)": 5.260951834175466,
        "Longitude(deg)": -70.84243906367142,
        "Mean Anomaly(deg)": -187.50123352351474,
        "RAAN(deg)": 214.99173798182687,
        "Satellite Name": "Constellation 1 956",
        "Satellite Number": 956,
        "Semi-Major Axis(m)": 7083131.272910544,
        "Time(s)": 146
    },
    {
        "Altitude(m)": 702919.0543179727,
        "Argument of Periapsis(deg)": 0.008812356918074627,
        "Eccentricity": 0.0,
        "Inclination(deg)": 45.0,
        "Latitude(deg)": 5.2179125200092535,
        "Longitude(deg)": -70.80332502771083,
        "Mean Anomaly(deg)": -187.4405323832648,
        "RAAN(deg)": 214.99168139266132,
        "Satellite Name": "Constellation 1 956",
        "Satellite Number": 956,
        "Semi-Major Axis(m)": 7083131.272910544,
        "Time(s)": 147
    },
    {
        "Altitude(m)": 702922.1562525108,
        "Argument of Periapsis(deg)": 0.008872304924320031,
        "Eccentricity": 0.0,
        "Inclination(deg)": 45.0,
        "Latitude(deg)": 5.174870230782967,
        "Longitude(deg)": -70.7642171016429,
        "Mean Anomaly(deg)": -187.37983124301496,
        "RAAN(deg)": 214.9916248034957,
        "Satellite Name": "Constellation 1 956",
        "Satellite Number": 956,
        "Semi-Major Axis(m)": 7083131.272910544,
        "Time(s)": 148
    },
    {
        "Altitude(m)": 702925.2789227838,
        "Argument of Periapsis(deg)": 0.008932252930565437,
        "Eccentricity": 0.0,
        "Inclination(deg)": 45.0,
        "Latitude(deg)": 5.131824992132211,
        "Longitude(deg)": -70.7251149001518,
        "Mean Anomaly(deg)": -187.319130102765,
        "RAAN(deg)": 214.99156821433016,
        "Satellite Name": "Constellation 1 956",
        "Satellite Number": 956,
        "Semi-Major Axis(m)": 7083131.272910544,
        "Time(s)": 149
    },
    {
        "Altitude(m)": 702928.4223335091,
        "Argument of Periapsis(deg)": 0.008992200936810843,
        "Eccentricity": 0.0,
        "Inclination(deg)": 45.0,
        "Latitude(deg)": 5.0887768296812075,
        "Longitude(deg)": -70.68601854222605,
        "Mean Anomaly(deg)": -187.25842896251518,
        "RAAN(deg)": 214.9915116251646,
        "Satellite Name": "Constellation 1 956",
        "Satellite Number": 956,
        "Semi-Major Axis(m)": 7083131.272910544,
        "Time(s)": 150
    },
    {
        "Altitude(m)": 702931.5864893068,
        "Argument of Periapsis(deg)": 0.009052148943056249,
        "Eccentricity": 0.0,
        "Inclination(deg)": 45.0,
        "Latitude(deg)": 5.045725769042879,
        "Longitude(deg)": -70.64692797877002,
        "Mean Anomaly(deg)": -187.1977278222652,
        "RAAN(deg)": 214.99145503599902,
        "Satellite Name": "Constellation 1 956",
        "Satellite Number": 956,
        "Semi-Major Axis(m)": 7083131.272910544,
        "Time(s)": 151
    }
]